*******************************************************************************
JPL/HORIZONS                  ATLAS (C/2025 N1)            2025-Sep-08 08:51:11
Rec #:90004912 (+COV) Soln.date: 2025-Aug-15_16:14:02      # obs: 539 (82 days)
 
IAU76/J2000 helio. ecliptic osc. elements (au, days, deg., period=Julian yrs):
 
  EPOCH=  2460875.5 ! 2025-Jul-19.0000000 (TDB)    RMSW= n.a.
   EC= 6.13941773560135    QR= 1.356384536873145   TP= 2460977.981374572
   OM= 322.1568424910531   W= 128.0105136667548    IN= 175.1131048023619
   A= -.2639179390842877   MA= -24.9817760633083   ADIST= 9.999999E99
   PER= 9.999999E99        N= 7.269435828          ANGMOM= .053530864
   DAN= -3.48251           DDN= 2.02561            L= 194.0450439
   B= 3.8486005            MOID= .36489099         TP= 2025-Oct-29.4813745720
 
Comet physical (GM= km^3/s^2; RAD= km):
   GM= n.a.                RAD= n.a.
   M1=  12.3     M2=  n.a.     k1=  4.5    k2= n.a.     PHCOF= n.a.
COMET comments 
1: soln ref.= JPL#25, data arc: 2025-05-22 to 2025-08-12
2: k1=4.5;
*******************************************************************************


*******************************************************************************
Ephemeris / WWW_USER Mon Sep  8 08:51:11 2025 Pasadena, USA      / Horizons    
*******************************************************************************
Target body name: ATLAS (C/2025 N1)               {source: JPL#25}
Center body name: Earth (399)                     {source: DE441}
Center-site name: Cerro Paranal
*******************************************************************************
Start time      : A.D. 2025-Sep-03 22:00:00.0000 UT      
Stop  time      : A.D. 2025-Sep-04 04:00:00.0000 UT      
Step-size       : 1 minutes
*******************************************************************************
Target pole/equ : undefined
Target radii    : undefined                                                    
Center geodetic : 289.5957, -24.6272128, 2.63514  {E-lon(deg),Lat(deg),Alt(km)}
Center cylindric: 289.5957,5803.73915,-2642.69127 {E-lon(deg),Dxy(km),Dz(km)}
Center pole/equ : ITRF93                          {East-longitude positive}
Center radii    : 6378.137, 6378.137, 6356.752 km {Equator_a, b, pole_c}       
Target primary  : Sun
Vis. interferer : MOON (R_eq= 1737.400) km        {source: DE441}
Rel. light bend : Sun                             {source: DE441}
Rel. lght bnd GM: 1.3271E+11 km^3/s^2                                          
Small-body perts: Yes                             {source: SB441-N16}
Atmos refraction: NO (AIRLESS)
RA format       : HMS
Time format     : BOTH
Calendar mode   : Mixed Julian/Gregorian
RTS-only print  : NO       
EOP file        : eop.250905.p251201                                           
EOP coverage    : DATA-BASED 1962-JAN-20 TO 2025-SEP-05. PREDICTS-> 2025-NOV-30
Units conversion: 1 au= 149597870.700 km, c= 299792.458 km/s, 1 day= 86400.0 s 
Table cut-offs 1: Elevation ( 20.0deg=YES),Airmass (< 2.600=YES),Daylight (NO )
Table cut-offs 2: Solar elongation (  0.0,180.0=NO ),Local Hour Angle( 0.0=NO )
Table cut-offs 3: RA/DEC angular rate (     0.0=NO )                           
Table format    : Comma Separated Values (spreadsheet)
*******************************************************************************
Initial IAU76/J2000 heliocentric ecliptic osculating elements (au, days, deg.):
  EPOCH=  2460875.5 ! 2025-Jul-19.0000000 (TDB)    RMSW= n.a.                  
   EC= 6.13941773560135    QR= 1.356384536873145   TP= 2460977.981374572       
   OM= 322.1568424910531   W= 128.0105136667548    IN= 175.1131048023619       
  Equivalent ICRF heliocentric cartesian coordinates (au, au/d):
   X= 2.541783370443595E-02  Y=-3.690024178861544E+00  Z=-1.313673994656487E+00
  VX=-1.386122878612450E-02 VY= 3.071572855083918E-02 VZ= 1.169319494209796E-02
Comet physical (GM= km^3/s^2; RAD= km):                                        
   GM= n.a.                RAD= n.a.                                           
   M1=  12.3     M2=  n.a.     k1=  4.5    k2= n.a.     PHCOF= n.a.            
************************************************************************************************************************************************************************************
 Date__(UT)__HR:MN:SS, Date_________JDUT, , , R.A._____(ICRF), DEC______(ICRF),  dRA*cosD, d(DEC)/dt,    T-mag,  N-mag,                r,       rdot,             delta,     deldot,
************************************************************************************************************************************************************************************
$$SOE
 2025-Sep-03 23:56:00, 2460922.497222222, ,m, 15 22 28.436102, -14 07 43.13200,  -86.0568,  17.45241,   16.079,   n.a.,   2.425858732405,-51.3116747,  2.56685388728871, -4.3469597,
 2025-Sep-03 23:57:00, 2460922.497916667, ,m, 15 22 28.337540, -14 07 42.83830,  -86.0540,  17.45311,   16.079,   n.a.,   2.425838152301,-51.3114938,  2.56685214394475, -4.3454580,
 2025-Sep-03 23:58:00, 2460922.498611111, ,m, 15 22 28.238982, -14 07 42.54459,  -86.0511,  17.45382,   16.079,   n.a.,   2.425817572270,-51.3113129,  2.56685040120209, -4.3439615,
 2025-Sep-03 23:59:00, 2460922.499305556, ,m, 15 22 28.140427, -14 07 42.25087,  -86.0482,  17.45452,   16.079,   n.a.,   2.425796992312,-51.3111320,  2.56684865905866, -4.3424703,
 2025-Sep-04 00:00:00, 2460922.500000000, ,m, 15 22 28.041875, -14 07 41.95714,  -86.0454,  17.45522,   16.079,   n.a.,   2.425776412426,-51.3109511,  2.56684691751233, -4.3409843,
 2025-Sep-04 00:01:00, 2460922.500694444, ,m, 15 22 27.943327, -14 07 41.66339,  -86.0425,  17.45591,   16.079,   n.a.,   2.425755832613,-51.3107701,  2.56684517656099, -4.3395036,
 2025-Sep-04 00:02:00, 2460922.501388889, ,m, 15 22 27.844782, -14 07 41.36964,  -86.0396,  17.45660,   16.079,   n.a.,   2.425735252873,-51.3105892,  2.56684343620253, -4.3380282,
 2025-Sep-04 00:03:00, 2460922.502083333, ,m, 15 22 27.746240, -14 07 41.07587,  -86.0367,  17.45730,   16.079,   n.a.,   2.425714673205,-51.3104083,  2.56684169643479, -4.3365582,
 2025-Sep-04 00:04:00, 2460922.502777778, ,m, 15 22 27.647702, -14 07 40.78209,  -86.0337,  17.45798,   16.079,   n.a.,   2.425694093610,-51.3102273,  2.56683995725564, -4.3350935,
 2025-Sep-04 00:05:00, 2460922.503472222, ,m, 15 22 27.549167, -14 07 40.48830,  -86.0308,  17.45867,   16.079,   n.a.,   2.425673514088,-51.3100464,  2.56683821866291, -4.3336343,
 2025-Sep-04 00:06:00, 2460922.504166667, ,m, 15 22 27.450635, -14 07 40.19450,  -86.0279,  17.45935,   16.079,   n.a.,   2.425652934639,-51.3098654,  2.56683648065444, -4.3321804,
 2025-Sep-04 00:07:00, 2460922.504861111, ,m, 15 22 27.352107, -14 07 39.90068,  -86.0249,  17.46003,   16.079,   n.a.,   2.425632355262,-51.3096845,  2.56683474322806, -4.3307320,
 2025-Sep-04 00:08:00, 2460922.505555556, ,m, 15 22 27.253582, -14 07 39.60686,  -86.0219,  17.46071,   16.079,   n.a.,   2.425611775957,-51.3095035,  2.56683300638156, -4.3292890,
 2025-Sep-04 00:09:00, 2460922.506250000, ,m, 15 22 27.155061, -14 07 39.31302,  -86.0189,  17.46138,   16.079,   n.a.,   2.425591196726,-51.3093225,  2.56683127011276, -4.3278516,
 2025-Sep-04 00:10:00, 2460922.506944444, ,m, 15 22 27.056543, -14 07 39.01918,  -86.0160,  17.46205,   16.079,   n.a.,   2.425570617567,-51.3091416,  2.56682953441945, -4.3264196,
 2025-Sep-04 00:11:00, 2460922.507638889, ,m, 15 22 26.958029, -14 07 38.72532,  -86.0129,  17.46272,   16.079,   n.a.,   2.425550038481,-51.3089606,  2.56682779929940, -4.3249932,
 2025-Sep-04 00:12:00, 2460922.508333333, ,m, 15 22 26.859518, -14 07 38.43145,  -86.0099,  17.46339,   16.079,   n.a.,   2.425529459467,-51.3087796,  2.56682606475040, -4.3235724,
 2025-Sep-04 00:13:00, 2460922.509027778, ,m, 15 22 26.761011, -14 07 38.13757,  -86.0069,  17.46405,   16.079,   n.a.,   2.425508880527,-51.3085986,  2.56682433077020, -4.3221572,
 2025-Sep-04 00:14:00, 2460922.509722222, ,m, 15 22 26.662507, -14 07 37.84368,  -86.0039,  17.46471,   16.079,   n.a.,   2.425488301658,-51.3084176,  2.56682259735657, -4.3207475,
 2025-Sep-04 00:15:00, 2460922.510416667, ,m, 15 22 26.564007, -14 07 37.54978,  -86.0008,  17.46537,   16.079,   n.a.,   2.425467722863,-51.3082366,  2.56682086450723, -4.3193435,
 2025-Sep-04 00:16:00, 2460922.511111111, ,m, 15 22 26.465510, -14 07 37.25587,  -85.9978,  17.46602,   16.079,   n.a.,   2.425447144140,-51.3080556,  2.56681913221993, -4.3179452,
 2025-Sep-04 00:17:00, 2460922.511805556, ,m, 15 22 26.367017, -14 07 36.96195,  -85.9947,  17.46668,   16.079,   n.a.,   2.425426565490,-51.3078746,  2.56681740049238, -4.3165526,
 2025-Sep-04 00:18:00, 2460922.512500000, ,m, 15 22 26.268528, -14 07 36.66801,  -85.9916,  17.46732,   16.079,   n.a.,   2.425405986913,-51.3076936,  2.56681566932231, -4.3151656,
 2025-Sep-04 00:19:00, 2460922.513194445, ,m, 15 22 26.170042, -14 07 36.37407,  -85.9885,  17.46797,   16.078,   n.a.,   2.425385408408,-51.3075126,  2.56681393870741, -4.3137844,
 2025-Sep-04 00:20:00, 2460922.513888889, ,m, 15 22 26.071559, -14 07 36.08012,  -85.9854,  17.46861,   16.078,   n.a.,   2.425364829976,-51.3073315,  2.56681220864538, -4.3124090,
 2025-Sep-04 00:21:00, 2460922.514583333, ,m, 15 22 25.973080, -14 07 35.78615,  -85.9823,  17.46926,   16.078,   n.a.,   2.425344251617,-51.3071505,  2.56681047913391, -4.3110393,
 2025-Sep-04 00:22:00, 2460922.515277778, ,m, 15 22 25.874605, -14 07 35.49217,  -85.9792,  17.46989,   16.078,   n.a.,   2.425323673331,-51.3069695,  2.56680875017067, -4.3096755,
 2025-Sep-04 00:23:00, 2460922.515972222, ,m, 15 22 25.776133, -14 07 35.19819,  -85.9760,  17.47053,   16.078,   n.a.,   2.425303095117,-51.3067884,  2.56680702175333, -4.3083175,
 2025-Sep-04 00:24:00, 2460922.516666667, ,m, 15 22 25.677665, -14 07 34.90419,  -85.9729,  17.47116,   16.078,   n.a.,   2.425282516976,-51.3066074,  2.56680529387954, -4.3069653,
